STARLINK-32401          
1 61865U 24202W   26178.14715277 -.00000096  00000+0  60525-5 0  9992
2 61865  43.0031 340.1825 0001111 284.6078  75.4650 15.27573023 92071
STARLINK-32588          
1 61866U 24202X   26178.14072295  .00001703  00000+0  71423-4 0  9992
2 61866  43.0014 340.1370 0001290 265.0523  95.0181 15.27570161 92071
STARLINK-32569          
1 61867U 24202Y   26177.82408814 -.00002121  00000+0 -67628-4 0  9996
2 61867  43.0032 342.0571 0001077 283.6970  76.3761 15.27555547 92023
STARLINK-11402 [DTC]    
1 61874U 24204A   26178.28786493  .00000430  00000+0  84094-5 0  9995
2 61874  53.1588 176.3427 0001011 101.3812 258.7320 15.69712640 94716
STARLINK-11316 [DTC]    
1 61875U 24204B   26178.29266456  .00000934  00000+0  12562-4 0  9998
2 61875  53.1582 175.6224 0000983 123.0156 237.0956 15.69711071 94135
STARLINK-11321 [DTC]    
1 61877U 24204D   26178.27805752  .00000016  00000+0  49942-5 0  9990
2 61877  53.1584 176.2589 0001126  89.7665 270.3482 15.69706873 94119
STARLINK-11314 [DTC]    
1 61878U 24204E   26178.27315621  .00000407  00000+0  82176-5 0  9992
2 61878  53.1579 176.2271 0001051  61.8817 298.2307 15.69699016 94125
STARLINK-11324 [DTC]    
1 61879U 24204F   26178.26824437  .00000407  00000+0  82153-5 0  9997
2 61879  53.1586 176.1945 0001039  88.4814 271.6323 15.69707511 94122
STARLINK-11328 [DTC]    
1 61880U 24204G   26178.19966918  .00000119  00000+0  58400-5 0  9990
2 61880  53.1583 176.4725 0000935  88.1013 272.0112 15.69704713 94113
STARLINK-11329 [DTC]    
1 61881U 24204H   26178.25843245  .00000283  00000+0  71943-5 0  9994
2 61881  53.1590 176.1277 0001053  99.0666 261.0471 15.69705577 94124
STARLINK-11398 [DTC]    
1 61882U 24204J   26178.25353194  .00000003  00000+0  48873-5 0  9990
2 61882  53.1600 176.0972 0001472  62.2638 297.8530 15.69701694 94123
STARLINK-11383 [DTC]    
1 61883U 24204K   26178.24371874 -.00000695  00000+0 -88441-6 0  9990
2 61883  53.1581 176.0272 0000851  86.4342 273.6773 15.69706016 94129
STARLINK-11359 [DTC]    
1 61884U 24204L   26178.24862145  .00000476  00000+0  87867-5 0  9992
2 61884  53.1590 176.0618 0001030  94.4380 265.6755 15.69708077 94125
STARLINK-11301 [DTC]    
1 61885U 24204M   26178.30247654  .00001122  00000+0  14125-4 0  9997
2 61885  53.1586 175.6775 0001532 144.1829 215.9292 15.69706385 94133
STARLINK-11351 [DTC]    
1 61886U 24204N   26178.29757393 -.00000072  00000+0  42587-5 0  9990
2 61886  53.1592 175.6491 0000929  78.9245 281.1878 15.69706092 94131
STARLINK-32410          
1 61887U 24204P   26177.82450904 -.00001158  00000+0 -23159-4 0  9997
2 61887  53.1630 338.2441 0001163 109.8510 250.2618 15.34378486 91834
STARLINK-32377          
1 61888U 24204Q   26177.82240549  .00000147  00000+0  15486-4 0  9999
2 61888  53.1604 338.2313 0001386  91.3995 268.7167 15.34379121 91822
STARLINK-32292          
1 61889U 24204R   26178.16070784 -.00000242  00000+0  39732-5 0  9998
2 61889  53.1621 336.7871 0001498 103.1749 256.9421 15.34381287 91881
STARLINK-32501          
1 61890U 24204S   26178.17543196 -.00000115  00000+0  77524-5 0  9993
2 61890  53.1617 336.8776 0001450  92.0188 268.0981 15.34384904 91888
STARLINK-32383          
1 61891U 24204T   26178.16912324 -.00001461  00000+0 -32130-4 0  9995
2 61891  53.1612 336.8393 0001034  78.4689 281.6430 15.34387915 91886
STARLINK-32239          
1 61892U 24204U   26178.17381765  .00000957  00000+0  39483-4 0  9991
2 61892  53.1617 338.2842 0001404  81.9803 278.1358 15.34384453 91867
STARLINK-32489          
1 61893U 24204V   26177.88122831 -.00001038  00000+0 -19603-4 0  9991
2 61893  53.1632 337.8877 0001230  79.0229 281.0912 15.34378602 91830
STARLINK-32303          
1 61912U 24207A   26178.28396851  .00025877  00000+0  94562-3 0  9997
2 61912  43.0043  22.7644 0002945 273.1592  86.8923 15.27611062 92074
STARLINK-32434          
1 61913U 24207B   26177.98403390  .00012373  00000+0  45858-3 0  9992
2 61913  43.0009  24.8192 0001492 271.8281  88.2400 15.27566279 91438
STARLINK-32460          
1 61914U 24207C   26177.92878752  .00026879  00000+0  98194-3 0  9992
2 61914  42.9988  24.4008 0001389 281.2528  78.8167 15.27605919 91439
STARLINK-32559          
1 61915U 24207D   26178.25002315  .00759661  00000+0  19838-1 0  9992
2 61915  43.0004  22.4802 0001904 289.5016  83.0525 15.35801379  5862
STARLINK-32541          
1 61916U 24207E   26178.04636622  .00028716  00000+0  10494-2 0  9994
2 61916  43.0038  27.8857 0001354 276.8160  83.2538 15.27567891 91407
STARLINK-32544          
1 61917U 24207F   26177.88523460  .00026439  00000+0  96731-3 0  9990
2 61917  43.0034  24.9327 0001346 260.1123  99.9577 15.27564155 91429
STARLINK-32555          
1 61918U 24207G   26177.99254185  .00017176  00000+0  63244-3 0  9999
2 61918  43.0023  28.3400 0001647 284.2340  75.8328 15.27569466 91393
STARLINK-32547          
1 61919U 24207H   26178.25699769  .00022964  00000+0  84162-3 0  9994
2 61919  42.9990  22.5639 0001104 269.4343  90.6382 15.27572513 91472
