OBJECT_NAME,OBJECT_ID,EPOCH,MEAN_MOTION,ECCENTRICITY,INCLINATION,RA_OF_ASC_NODE,ARG_OF_PERICENTER,MEAN_ANOMALY,EPHEMERIS_TYPE,CLASSIFICATION_TYPE,NORAD_CAT_ID,ELEMENT_SET_NO,REV_AT_EPOCH,BSTAR,MEAN_MOTION_DOT,MEAN_MOTION_DDOT
STARLINK-32401,2024-202W,2026-06-27T03:31:53.999328,15.27573023,.00011119,43.0031,340.1825,284.6078,75.4650,0,U,61865,999,9207,.6052528E-5,-.96E-6,0
STARLINK-32588,2024-202X,2026-06-27T03:22:38.462880,15.27570161,.00012906,43.0014,340.1370,265.0523,95.0181,0,U,61866,999,9207,.71423413E-4,.1703E-4,0
STARLINK-32569,2024-202Y,2026-06-26T19:46:41.215296,15.27555547,.00010779,43.0032,342.0571,283.6970,76.3761,0,U,61867,999,9202,-.67628384E-4,-.2121E-4,0
STARLINK-11402 [DTC],2024-204A,2026-06-27T06:54:31.529952,15.69712640,.0001011,53.1588,176.3427,101.3812,258.7320,0,U,61874,999,9471,.8409368E-5,.43E-5,0
STARLINK-11316 [DTC],2024-204B,2026-06-27T07:01:26.217984,15.69711071,.00009834,53.1582,175.6224,123.0156,237.0956,0,U,61875,999,9413,.12561717E-4,.934E-5,0
STARLINK-11321 [DTC],2024-204D,2026-06-27T06:40:24.169728,15.69706873,.00011261,53.1584,176.2589,89.7665,270.3482,0,U,61877,999,9411,.4994192E-5,.16E-6,0
STARLINK-11314 [DTC],2024-204E,2026-06-27T06:33:20.696544,15.69699016,.00010513,53.1579,176.2271,61.8817,298.2307,0,U,61878,999,9412,.8217648E-5,.407E-5,0
STARLINK-11324 [DTC],2024-204F,2026-06-27T06:26:16.313568,15.69707511,.00010391,53.1586,176.1945,88.4814,271.6323,0,U,61879,999,9412,.8215262E-5,.407E-5,0
STARLINK-11328 [DTC],2024-204G,2026-06-27T04:47:31.417152,15.69704713,.00009359,53.1583,176.4725,88.1013,272.0112,0,U,61880,999,9411,.5839995E-5,.119E-5,0
STARLINK-11329 [DTC],2024-204H,2026-06-27T06:12:08.563680,15.69705577,.00010539,53.1590,176.1277,99.0666,261.0471,0,U,61881,999,9412,.7194278E-5,.283E-5,0
STARLINK-11398 [DTC],2024-204J,2026-06-27T06:05:05.159616,15.69701694,.00014724,53.1600,176.0972,62.2638,297.8530,0,U,61882,999,9412,.4887346E-5,.3E-7,0
STARLINK-11383 [DTC],2024-204K,2026-06-27T05:50:57.299136,15.69706016,.00008517,53.1581,176.0272,86.4342,273.6773,0,U,61883,999,9412,-.884408E-6,-.695E-5,0
STARLINK-11359 [DTC],2024-204L,2026-06-27T05:58:00.893280,15.69708077,.00010307,53.1590,176.0618,94.4380,265.6755,0,U,61884,999,9412,.8786748E-5,.476E-5,0
STARLINK-11301 [DTC],2024-204M,2026-06-27T07:15:33.973056,15.69706385,.00015326,53.1586,175.6775,144.1829,215.9292,0,U,61885,999,9413,.14125108E-4,.1122E-4,0
STARLINK-11351 [DTC],2024-204N,2026-06-27T07:08:30.387552,15.69706092,.00009298,53.1592,175.6491,78.9245,281.1878,0,U,61886,999,9413,.4258653E-5,-.72E-6,0
STARLINK-32410,2024-204P,2026-06-26T19:47:17.581056,15.34378486,.00011638,53.1630,338.2441,109.8510,250.2618,0,U,61887,999,9183,-.23159442E-4,-.1158E-4,0
STARLINK-32377,2024-204Q,2026-06-26T19:44:15.834336,15.34379121,.00013861,53.1604,338.2313,91.3995,268.7167,0,U,61888,999,9182,.15485737E-4,.147E-5,0
STARLINK-32292,2024-204R,2026-06-27T03:51:25.157376,15.34381287,.00014987,53.1621,336.7871,103.1749,256.9421,0,U,61889,999,9188,.3973162E-5,-.242E-5,0
STARLINK-32501,2024-204S,2026-06-27T04:12:37.321344,15.34384904,.00014506,53.1617,336.8776,92.0188,268.0981,0,U,61890,999,9188,.7752395E-5,-.115E-5,0
STARLINK-32383,2024-204T,2026-06-27T04:03:32.247936,15.34387915,.00010346,53.1612,336.8393,78.4689,281.6430,0,U,61891,999,9188,-.32129602E-4,-.1461E-4,0
STARLINK-32239,2024-204U,2026-06-27T04:10:17.844960,15.34384453,.00014043,53.1617,338.2842,81.9803,278.1358,0,U,61892,999,9186,.39483116E-4,.957E-5,0
STARLINK-32489,2024-204V,2026-06-26T21:08:58.125984,15.34378602,.000123,53.1632,337.8877,79.0229,281.0912,0,U,61893,999,9183,-.19603E-4,-.1038E-4,0
STARLINK-32303,2024-207A,2026-06-27T06:48:54.879264,15.27611062,.00029451,43.0043,22.7644,273.1592,86.8923,0,U,61912,999,9207,.94562265E-3,.25877E-3,0
STARLINK-32434,2024-207B,2026-06-26T23:37:00.528960,15.27566279,.0001492,43.0009,24.8192,271.8281,88.2400,0,U,61913,999,9143,.45858274E-3,.12373E-3,0
STARLINK-32460,2024-207C,2026-06-26T22:17:27.241728,15.27605919,.0001389,42.9988,24.4008,281.2528,78.8167,0,U,61914,999,9143,.98194E-3,.26879E-3,0
STARLINK-32559,2024-207D,2026-06-27T06:00:02.000160,15.35801379,.00019049,43.0004,22.4802,289.5016,83.0525,0,U,61915,999,586,.19838186E-1,.759661E-2,0
STARLINK-32541,2024-207E,2026-06-27T01:06:46.041408,15.27567891,.00013541,43.0038,27.8857,276.8160,83.2538,0,U,61916,999,9140,.10493773E-2,.28716E-3,0
STARLINK-32544,2024-207F,2026-06-26T21:14:44.269440,15.27564155,.00013464,43.0034,24.9327,260.1123,99.9577,0,U,61917,999,9142,.96731346E-3,.26439E-3,0
STARLINK-32555,2024-207G,2026-06-26T23:49:15.615840,15.27569466,.00016479,43.0023,28.3400,284.2340,75.8328,0,U,61918,999,9139,.63244047E-3,.17176E-3,0
STARLINK-32547,2024-207H,2026-06-27T06:10:04.600416,15.27572513,.00011047,42.9990,22.5639,269.4343,90.6382,0,U,61919,999,9147,.84161775E-3,.22964E-3,0
